{
  "type": "FeatureCollection",
  "name": "Feldlerchen-Reviere (Simulation)",
  "crs": {
    "type": "name",
    "properties": {
      "name": "urn:ogc:def:crs:OGC:1.3:CRS84"
    }
  },
  "metadata": {
    "hinweis": "Simulierte Daten. Die Reviere stammen aus einer Simulation und wurden auf einen frei gewaehlten Referenzpunkt gelegt. Dies ist KEINE Kartierung realer Brutvoegel.",
    "datenquelle": "simulation",
    "enu_referenzpunkt": {
      "latitude": 52.124165,
      "longitude": 8.500326,
      "bedeutung": "Position von pi_1, entspricht ENU (0, 0, 0)"
    },
    "reviere": 6
  },
  "features": [
    {
      "type": "Feature",
      "geometry": {
        "type": "Point",
        "coordinates": [
          8.50320651,
          52.12576364
        ]
      },
      "properties": {
        "track_id": "track_0011",
        "radius_m": 58.22,
        "verfahren": "Start-/Endpunkt-Mittel",
        "punkte": 84,
        "abweichung_m": 0.52,
        "koordinaten": "52.125764, 8.503207",
        "google_maps_url": "https://www.google.com/maps?q=52.125764,8.503207",
        "navigation_url": "https://www.google.com/maps/dir/?api=1&destination=52.125764,8.503207",
        "datenquelle": "simulation",
        "name": "Revierzentrum track_0011",
        "typ": "revierzentrum_geschaetzt"
      }
    },
    {
      "type": "Feature",
      "geometry": {
        "type": "Polygon",
        "coordinates": [
          [
            [
              8.50405659,
              52.12576364
            ],
            [
              8.5040525,
              52.12581492
            ],
            [
              8.50404026,
              52.12586572
            ],
            [
              8.50401999,
              52.12591552
            ],
            [
              8.50399188,
              52.12596387
            ],
            [
              8.50395621,
              52.12601029
            ],
            [
              8.50391333,
              52.12605433
            ],
            [
              8.50386363,
              52.12609557
            ],
            [
              8.50380761,
              52.12613362
            ],
            [
              8.50374579,
              52.1261681
            ],
            [
              8.50367879,
              52.12619869
            ],
            [
              8.50360724,
              52.12622509
            ],
            [
              8.50353182,
              52.12624704
            ],
            [
              8.50345328,
              52.12626434
            ],
            [
              8.50337235,
              52.12627682
            ],
            [
              8.50328983,
              52.12628435
            ],
            [
              8.50320651,
              52.12628687
            ],
            [
              8.50312319,
              52.12628435
            ],
            [
              8.50304067,
              52.12627682
            ],
            [
              8.50295975,
              52.12626434
            ],
            [
              8.5028812,
              52.12624704
            ],
            [
              8.50280579,
              52.12622509
            ],
            [
              8.50273423,
              52.12619869
            ],
            [
              8.50266723,
              52.1261681
            ],
            [
              8.50260542,
              52.12613362
            ],
            [
              8.50254939,
              52.12609557
            ],
            [
              8.5024997,
              52.12605433
            ],
            [
              8.50245681,
              52.12601029
            ],
            [
              8.50242114,
              52.12596387
            ],
            [
              8.50239304,
              52.12591552
            ],
            [
              8.50237277,
              52.12586572
            ],
            [
              8.50236053,
              52.12581492
            ],
            [
              8.50235643,
              52.12576364
            ],
            [
              8.50236053,
              52.12571235
            ],
            [
              8.50237277,
              52.12566156
            ],
            [
              8.50239304,
              52.12561175
            ],
            [
              8.50242114,
              52.12556341
            ],
            [
              8.50245681,
              52.12551699
            ],
            [
              8.5024997,
              52.12547295
            ],
            [
              8.50254939,
              52.1254317
            ],
            [
              8.50260542,
              52.12539366
            ],
            [
              8.50266723,
              52.12535917
            ],
            [
              8.50273423,
              52.12532859
            ],
            [
              8.50280579,
              52.12530219
            ],
            [
              8.5028812,
              52.12528023
            ],
            [
              8.50295975,
              52.12526294
            ],
            [
              8.50304067,
              52.12525046
            ],
            [
              8.50312319,
              52.12524292
            ],
            [
              8.50320651,
              52.1252404
            ],
            [
              8.50328983,
              52.12524292
            ],
            [
              8.50337235,
              52.12525046
            ],
            [
              8.50345328,
              52.12526294
            ],
            [
              8.50353182,
              52.12528023
            ],
            [
              8.50360724,
              52.12530219
            ],
            [
              8.50367879,
              52.12532859
            ],
            [
              8.50374579,
              52.12535917
            ],
            [
              8.50380761,
              52.12539366
            ],
            [
              8.50386363,
              52.1254317
            ],
            [
              8.50391333,
              52.12547295
            ],
            [
              8.50395621,
              52.12551699
            ],
            [
              8.50399188,
              52.12556341
            ],
            [
              8.50401999,
              52.12561175
            ],
            [
              8.50404026,
              52.12566156
            ],
            [
              8.5040525,
              52.12571235
            ],
            [
              8.50405659,
              52.12576364
            ]
          ]
        ]
      },
      "properties": {
        "track_id": "track_0011",
        "radius_m": 58.22,
        "verfahren": "Start-/Endpunkt-Mittel",
        "punkte": 84,
        "abweichung_m": 0.52,
        "koordinaten": "52.125764, 8.503207",
        "google_maps_url": "https://www.google.com/maps?q=52.125764,8.503207",
        "navigation_url": "https://www.google.com/maps/dir/?api=1&destination=52.125764,8.503207",
        "datenquelle": "simulation",
        "name": "Revier track_0011",
        "typ": "revierflaeche"
      }
    },
    {
      "type": "Feature",
      "geometry": {
        "type": "Point",
        "coordinates": [
          8.5032106,
          52.12576759
        ]
      },
      "properties": {
        "track_id": "track_0011",
        "name": "Nest (Ground Truth) track_0011",
        "typ": "nest_ground_truth",
        "abweichung_m": 0.52,
        "datenquelle": "simulation"
      }
    },
    {
      "type": "Feature",
      "geometry": {
        "type": "Point",
        "coordinates": [
          8.50254231,
          52.1257169
        ]
      },
      "properties": {
        "track_id": "track_0013",
        "radius_m": 55.03,
        "verfahren": "Start-/Endpunkt-Mittel",
        "punkte": 38,
        "abweichung_m": 0.69,
        "koordinaten": "52.125717, 8.502542",
        "google_maps_url": "https://www.google.com/maps?q=52.125717,8.502542",
        "navigation_url": "https://www.google.com/maps/dir/?api=1&destination=52.125717,8.502542",
        "datenquelle": "simulation",
        "name": "Revierzentrum track_0013",
        "typ": "revierzentrum_geschaetzt"
      }
    },
    {
      "type": "Feature",
      "geometry": {
        "type": "Polygon",
        "coordinates": [
          [
            [
              8.50334581,
              52.1257169
            ],
            [
              8.50334194,
              52.12576538
            ],
            [
              8.50333037,
              52.12581339
            ],
            [
              8.50331121,
              52.12586047
            ],
            [
              8.50328464,
              52.12590617
            ],
            [
              8.50325093,
              52.12595004
            ],
            [
              8.50321039,
              52.12599167
            ],
            [
              8.50316342,
              52.12603065
            ],
            [
              8.50311047,
              52.12606661
            ],
            [
              8.50305204,
              52.12609921
            ],
            [
              8.50298871,
              52.12612812
            ],
            [
              8.50292107,
              52.12615307
            ],
            [
              8.50284979,
              52.12617382
            ],
            [
              8.50277555,
              52.12619017
            ],
            [
              8.50269906,
              52.12620197
            ],
            [
              8.50262106,
              52.12620909
            ],
            [
              8.50254231,
              52.12621147
            ],
            [
              8.50246355,
              52.12620909
            ],
            [
              8.50238555,
              52.12620197
            ],
            [
              8.50230906,
              52.12619017
            ],
            [
              8.50223482,
              52.12617382
            ],
            [
              8.50216354,
              52.12615307
            ],
            [
              8.5020959,
              52.12612812
            ],
            [
              8.50203257,
              52.12609921
            ],
            [
              8.50197415,
              52.12606661
            ],
            [
              8.50192119,
              52.12603065
            ],
            [
              8.50187422,
              52.12599167
            ],
            [
              8.50183368,
              52.12595004
            ],
            [
              8.50179997,
              52.12590617
            ],
            [
              8.5017734,
              52.12586047
            ],
            [
              8.50175424,
              52.12581339
            ],
            [
              8.50174267,
              52.12576538
            ],
            [
              8.50173881,
              52.1257169
            ],
            [
              8.50174267,
              52.12566843
            ],
            [
              8.50175424,
              52.12562042
            ],
            [
              8.5017734,
              52.12557334
            ],
            [
              8.50179997,
              52.12552764
            ],
            [
              8.50183368,
              52.12548377
            ],
            [
              8.50187422,
              52.12544214
            ],
            [
              8.50192119,
              52.12540316
            ],
            [
              8.50197415,
              52.1253672
            ],
            [
              8.50203257,
              52.1253346
            ],
            [
              8.5020959,
              52.12530569
            ],
            [
              8.50216354,
              52.12528074
            ],
            [
              8.50223482,
              52.12525999
            ],
            [
              8.50230906,
              52.12524364
            ],
            [
              8.50238555,
              52.12523184
            ],
            [
              8.50246355,
              52.12522472
            ],
            [
              8.50254231,
              52.12522234
            ],
            [
              8.50262106,
              52.12522472
            ],
            [
              8.50269906,
              52.12523184
            ],
            [
              8.50277555,
              52.12524364
            ],
            [
              8.50284979,
              52.12525999
            ],
            [
              8.50292107,
              52.12528074
            ],
            [
              8.50298871,
              52.12530569
            ],
            [
              8.50305204,
              52.1253346
            ],
            [
              8.50311047,
              52.1253672
            ],
            [
              8.50316342,
              52.12540316
            ],
            [
              8.50321039,
              52.12544214
            ],
            [
              8.50325093,
              52.12548377
            ],
            [
              8.50328464,
              52.12552764
            ],
            [
              8.50331121,
              52.12557334
            ],
            [
              8.50333037,
              52.12562042
            ],
            [
              8.50334194,
              52.12566843
            ],
            [
              8.50334581,
              52.1257169
            ]
          ]
        ]
      },
      "properties": {
        "track_id": "track_0013",
        "radius_m": 55.03,
        "verfahren": "Start-/Endpunkt-Mittel",
        "punkte": 38,
        "abweichung_m": 0.69,
        "koordinaten": "52.125717, 8.502542",
        "google_maps_url": "https://www.google.com/maps?q=52.125717,8.502542",
        "navigation_url": "https://www.google.com/maps/dir/?api=1&destination=52.125717,8.502542",
        "datenquelle": "simulation",
        "name": "Revier track_0013",
        "typ": "revierflaeche"
      }
    },
    {
      "type": "Feature",
      "geometry": {
        "type": "Point",
        "coordinates": [
          8.50253384,
          52.12571358
        ]
      },
      "properties": {
        "track_id": "track_0013",
        "name": "Nest (Ground Truth) track_0013",
        "typ": "nest_ground_truth",
        "abweichung_m": 0.69,
        "datenquelle": "simulation"
      }
    },
    {
      "type": "Feature",
      "geometry": {
        "type": "Point",
        "coordinates": [
          8.50342465,
          52.12485423
        ]
      },
      "properties": {
        "track_id": "track_0021",
        "radius_m": 39.37,
        "verfahren": "Start-/Endpunkt-Mittel",
        "punkte": 38,
        "abweichung_m": 0.13,
        "koordinaten": "52.124854, 8.503425",
        "google_maps_url": "https://www.google.com/maps?q=52.124854,8.503425",
        "navigation_url": "https://www.google.com/maps/dir/?api=1&destination=52.124854,8.503425",
        "datenquelle": "simulation",
        "name": "Revierzentrum track_0021",
        "typ": "revierzentrum_geschaetzt"
      }
    },
    {
      "type": "Feature",
      "geometry": {
        "type": "Polygon",
        "coordinates": [
          [
            [
              8.5039995,
              52.12485423
            ],
            [
              8.50399673,
              52.12488891
            ],
            [
              8.50398845,
              52.12492325
            ],
            [
              8.50397475,
              52.12495694
            ],
            [
              8.50395574,
              52.12498963
            ],
            [
              8.50393162,
              52.12502102
            ],
            [
              8.50390262,
              52.1250508
            ],
            [
              8.50386901,
              52.12507869
            ],
            [
              8.50383113,
              52.12510442
            ],
            [
              8.50378933,
              52.12512774
            ],
            [
              8.50374402,
              52.12514842
            ],
            [
              8.50369563,
              52.12516627
            ],
            [
              8.50364464,
              52.12518112
            ],
            [
              8.50359152,
              52.12519282
            ],
            [
              8.5035368,
              52.12520125
            ],
            [
              8.503481,
              52.12520635
            ],
            [
              8.50342465,
              52.12520805
            ],
            [
              8.50336831,
              52.12520635
            ],
            [
              8.50331251,
              52.12520125
            ],
            [
              8.50325778,
              52.12519282
            ],
            [
              8.50320467,
              52.12518112
            ],
            [
              8.50315367,
              52.12516627
            ],
            [
              8.50310528,
              52.12514842
            ],
            [
              8.50305997,
              52.12512774
            ],
            [
              8.50301817,
              52.12510442
            ],
            [
              8.50298029,
              52.12507869
            ],
            [
              8.50294668,
              52.1250508
            ],
            [
              8.50291768,
              52.12502102
            ],
            [
              8.50289356,
              52.12498963
            ],
            [
              8.50287456,
              52.12495694
            ],
            [
              8.50286085,
              52.12492325
            ],
            [
              8.50285257,
              52.12488891
            ],
            [
              8.50284981,
              52.12485423
            ],
            [
              8.50285257,
              52.12481955
            ],
            [
              8.50286085,
              52.1247852
            ],
            [
              8.50287456,
              52.12475152
            ],
            [
              8.50289356,
              52.12471882
            ],
            [
              8.50291768,
              52.12468743
            ],
            [
              8.50294668,
              52.12465765
            ],
            [
              8.50298029,
              52.12462976
            ],
            [
              8.50301817,
              52.12460403
            ],
            [
              8.50305997,
              52.12458072
            ],
            [
              8.50310528,
              52.12456003
            ],
            [
              8.50315367,
              52.12454218
            ],
            [
              8.50320467,
              52.12452733
            ],
            [
              8.50325778,
              52.12451564
            ],
            [
              8.50331251,
              52.1245072
            ],
            [
              8.50336831,
              52.12450211
            ],
            [
              8.50342465,
              52.1245004
            ],
            [
              8.503481,
              52.12450211
            ],
            [
              8.5035368,
              52.1245072
            ],
            [
              8.50359152,
              52.12451564
            ],
            [
              8.50364464,
              52.12452733
            ],
            [
              8.50369563,
              52.12454218
            ],
            [
              8.50374402,
              52.12456003
            ],
            [
              8.50378933,
              52.12458072
            ],
            [
              8.50383113,
              52.12460403
            ],
            [
              8.50386901,
              52.12462976
            ],
            [
              8.50390262,
              52.12465765
            ],
            [
              8.50393162,
              52.12468743
            ],
            [
              8.50395574,
              52.12471882
            ],
            [
              8.50397475,
              52.12475152
            ],
            [
              8.50398845,
              52.1247852
            ],
            [
              8.50399673,
              52.12481955
            ],
            [
              8.5039995,
              52.12485423
            ]
          ]
        ]
      },
      "properties": {
        "track_id": "track_0021",
        "radius_m": 39.37,
        "verfahren": "Start-/Endpunkt-Mittel",
        "punkte": 38,
        "abweichung_m": 0.13,
        "koordinaten": "52.124854, 8.503425",
        "google_maps_url": "https://www.google.com/maps?q=52.124854,8.503425",
        "navigation_url": "https://www.google.com/maps/dir/?api=1&destination=52.124854,8.503425",
        "datenquelle": "simulation",
        "name": "Revier track_0021",
        "typ": "revierflaeche"
      }
    },
    {
      "type": "Feature",
      "geometry": {
        "type": "Point",
        "coordinates": [
          8.50342275,
          52.1248545
        ]
      },
      "properties": {
        "track_id": "track_0021",
        "name": "Nest (Ground Truth) track_0021",
        "typ": "nest_ground_truth",
        "abweichung_m": 0.13,
        "datenquelle": "simulation"
      }
    },
    {
      "type": "Feature",
      "geometry": {
        "type": "Point",
        "coordinates": [
          8.50158871,
          52.12502516
        ]
      },
      "properties": {
        "track_id": "track_0029",
        "radius_m": 47.26,
        "verfahren": "Start-/Endpunkt-Mittel",
        "punkte": 66,
        "abweichung_m": 0.27,
        "koordinaten": "52.125025, 8.501589",
        "google_maps_url": "https://www.google.com/maps?q=52.125025,8.501589",
        "navigation_url": "https://www.google.com/maps/dir/?api=1&destination=52.125025,8.501589",
        "datenquelle": "simulation",
        "name": "Revierzentrum track_0029",
        "typ": "revierzentrum_geschaetzt"
      }
    },
    {
      "type": "Feature",
      "geometry": {
        "type": "Polygon",
        "coordinates": [
          [
            [
              8.50227876,
              52.12502516
            ],
            [
              8.50227543,
              52.12506679
            ],
            [
              8.5022655,
              52.12510802
            ],
            [
              8.50224904,
              52.12514846
            ],
            [
              8.50222623,
              52.1251877
            ],
            [
              8.50219728,
              52.12522538
            ],
            [
              8.50216246,
              52.12526113
            ],
            [
              8.50212212,
              52.12529461
            ],
            [
              8.50207664,
              52.12532549
            ],
            [
              8.50202647,
              52.12535349
            ],
            [
              8.50197208,
              52.12537832
            ],
            [
              8.50191399,
              52.12539974
            ],
            [
              8.50185278,
              52.12541757
            ],
            [
              8.50178902,
              52.12543161
            ],
            [
              8.50172333,
              52.12544173
            ],
            [
              8.50165634,
              52.12544785
            ],
            [
              8.50158871,
              52.1254499
            ],
            [
              8.50152107,
              52.12544785
            ],
            [
              8.50145408,
              52.12544173
            ],
            [
              8.5013884,
              52.12543161
            ],
            [
              8.50132464,
              52.12541757
            ],
            [
              8.50126342,
              52.12539974
            ],
            [
              8.50120533,
              52.12537832
            ],
            [
              8.50115094,
              52.12535349
            ],
            [
              8.50110077,
              52.12532549
            ],
            [
              8.50105529,
              52.12529461
            ],
            [
              8.50101495,
              52.12526113
            ],
            [
              8.50098014,
              52.12522538
            ],
            [
              8.50095118,
              52.1251877
            ],
            [
              8.50092837,
              52.12514846
            ],
            [
              8.50091192,
              52.12510802
            ],
            [
              8.50090198,
              52.12506679
            ],
            [
              8.50089866,
              52.12502516
            ],
            [
              8.50090198,
              52.12498353
            ],
            [
              8.50091192,
              52.1249423
            ],
            [
              8.50092837,
              52.12490187
            ],
            [
              8.50095118,
              52.12486262
            ],
            [
              8.50098014,
              52.12482494
            ],
            [
              8.50101495,
              52.12478919
            ],
            [
              8.50105529,
              52.12475571
            ],
            [
              8.50110077,
              52.12472483
            ],
            [
              8.50115094,
              52.12469684
            ],
            [
              8.50120533,
              52.12467201
            ],
            [
              8.50126342,
              52.12465058
            ],
            [
              8.50132464,
              52.12463276
            ],
            [
              8.5013884,
              52.12461872
            ],
            [
              8.50145408,
              52.12460859
            ],
            [
              8.50152107,
              52.12460247
            ],
            [
              8.50158871,
              52.12460043
            ],
            [
              8.50165634,
              52.12460247
            ],
            [
              8.50172333,
              52.12460859
            ],
            [
              8.50178902,
              52.12461872
            ],
            [
              8.50185278,
              52.12463276
            ],
            [
              8.50191399,
              52.12465058
            ],
            [
              8.50197208,
              52.12467201
            ],
            [
              8.50202647,
              52.12469684
            ],
            [
              8.50207664,
              52.12472483
            ],
            [
              8.50212212,
              52.12475571
            ],
            [
              8.50216246,
              52.12478919
            ],
            [
              8.50219728,
              52.12482494
            ],
            [
              8.50222623,
              52.12486262
            ],
            [
              8.50224904,
              52.12490187
            ],
            [
              8.5022655,
              52.1249423
            ],
            [
              8.50227543,
              52.12498353
            ],
            [
              8.50227876,
              52.12502516
            ]
          ]
        ]
      },
      "properties": {
        "track_id": "track_0029",
        "radius_m": 47.26,
        "verfahren": "Start-/Endpunkt-Mittel",
        "punkte": 66,
        "abweichung_m": 0.27,
        "koordinaten": "52.125025, 8.501589",
        "google_maps_url": "https://www.google.com/maps?q=52.125025,8.501589",
        "navigation_url": "https://www.google.com/maps/dir/?api=1&destination=52.125025,8.501589",
        "datenquelle": "simulation",
        "name": "Revier track_0029",
        "typ": "revierflaeche"
      }
    },
    {
      "type": "Feature",
      "geometry": {
        "type": "Point",
        "coordinates": [
          8.50158608,
          52.12502696
        ]
      },
      "properties": {
        "track_id": "track_0029",
        "name": "Nest (Ground Truth) track_0029",
        "typ": "nest_ground_truth",
        "abweichung_m": 0.27,
        "datenquelle": "simulation"
      }
    },
    {
      "type": "Feature",
      "geometry": {
        "type": "Point",
        "coordinates": [
          8.50267123,
          52.12553276
        ]
      },
      "properties": {
        "track_id": "track_0040",
        "radius_m": 53.62,
        "verfahren": "Start-/Endpunkt-Mittel",
        "punkte": 43,
        "abweichung_m": 0.52,
        "koordinaten": "52.125533, 8.502671",
        "google_maps_url": "https://www.google.com/maps?q=52.125533,8.502671",
        "navigation_url": "https://www.google.com/maps/dir/?api=1&destination=52.125533,8.502671",
        "datenquelle": "simulation",
        "name": "Revierzentrum track_0040",
        "typ": "revierzentrum_geschaetzt"
      }
    },
    {
      "type": "Feature",
      "geometry": {
        "type": "Polygon",
        "coordinates": [
          [
            [
              8.50345415,
              52.12553276
            ],
            [
              8.50345038,
              52.12557999
            ],
            [
              8.5034391,
              52.12562677
            ],
            [
              8.50342043,
              52.12567264
            ],
            [
              8.50339455,
              52.12571717
            ],
            [
              8.5033617,
              52.12575992
            ],
            [
              8.5033222,
              52.12580048
            ],
            [
              8.50327643,
              52.12583847
            ],
            [
              8.50322484,
              52.12587351
            ],
            [
              8.50316791,
              52.12590527
            ],
            [
              8.5031062,
              52.12593344
            ],
            [
              8.5030403,
              52.12595775
            ],
            [
              8.50297084,
              52.12597797
            ],
            [
              8.5028985,
              52.1259939
            ],
            [
              8.50282397,
              52.12600539
            ],
            [
              8.50274797,
              52.12601233
            ],
            [
              8.50267123,
              52.12601465
            ],
            [
              8.50259449,
              52.12601233
            ],
            [
              8.5025185,
              52.12600539
            ],
            [
              8.50244397,
              52.1259939
            ],
            [
              8.50237163,
              52.12597797
            ],
            [
              8.50230217,
              52.12595775
            ],
            [
              8.50223627,
              52.12593344
            ],
            [
              8.50217456,
              52.12590527
            ],
            [
              8.50211763,
              52.12587351
            ],
            [
              8.50206603,
              52.12583847
            ],
            [
              8.50202027,
              52.12580048
            ],
            [
              8.50198077,
              52.12575992
            ],
            [
              8.50194792,
              52.12571717
            ],
            [
              8.50192203,
              52.12567264
            ],
            [
              8.50190336,
              52.12562677
            ],
            [
              8.50189209,
              52.12557999
            ],
            [
              8.50188832,
              52.12553276
            ],
            [
              8.50189209,
              52.12548552
            ],
            [
              8.50190336,
              52.12543875
            ],
            [
              8.50192203,
              52.12539287
            ],
            [
              8.50194792,
              52.12534835
            ],
            [
              8.50198077,
              52.1253056
            ],
            [
              8.50202027,
              52.12526503
            ],
            [
              8.50206603,
              52.12522705
            ],
            [
              8.50211763,
              52.12519201
            ],
            [
              8.50217456,
              52.12516025
            ],
            [
              8.50223627,
              52.12513208
            ],
            [
              8.50230217,
              52.12510777
            ],
            [
              8.50237163,
              52.12508755
            ],
            [
              8.50244397,
              52.12507162
            ],
            [
              8.5025185,
              52.12506012
            ],
            [
              8.50259449,
              52.12505319
            ],
            [
              8.50267123,
              52.12505087
            ],
            [
              8.50274797,
              52.12505319
            ],
            [
              8.50282397,
              52.12506012
            ],
            [
              8.5028985,
              52.12507162
            ],
            [
              8.50297084,
              52.12508755
            ],
            [
              8.5030403,
              52.12510777
            ],
            [
              8.5031062,
              52.12513208
            ],
            [
              8.50316791,
              52.12516025
            ],
            [
              8.50322484,
              52.12519201
            ],
            [
              8.50327643,
              52.12522705
            ],
            [
              8.5033222,
              52.12526503
            ],
            [
              8.5033617,
              52.1253056
            ],
            [
              8.50339455,
              52.12534835
            ],
            [
              8.50342043,
              52.12539287
            ],
            [
              8.5034391,
              52.12543875
            ],
            [
              8.50345038,
              52.12548552
            ],
            [
              8.50345415,
              52.12553276
            ]
          ]
        ]
      },
      "properties": {
        "track_id": "track_0040",
        "radius_m": 53.62,
        "verfahren": "Start-/Endpunkt-Mittel",
        "punkte": 43,
        "abweichung_m": 0.52,
        "koordinaten": "52.125533, 8.502671",
        "google_maps_url": "https://www.google.com/maps?q=52.125533,8.502671",
        "navigation_url": "https://www.google.com/maps/dir/?api=1&destination=52.125533,8.502671",
        "datenquelle": "simulation",
        "name": "Revier track_0040",
        "typ": "revierflaeche"
      }
    },
    {
      "type": "Feature",
      "geometry": {
        "type": "Point",
        "coordinates": [
          8.50267693,
          52.12552961
        ]
      },
      "properties": {
        "track_id": "track_0040",
        "name": "Nest (Ground Truth) track_0040",
        "typ": "nest_ground_truth",
        "abweichung_m": 0.52,
        "datenquelle": "simulation"
      }
    },
    {
      "type": "Feature",
      "geometry": {
        "type": "Point",
        "coordinates": [
          8.50341472,
          52.12583661
        ]
      },
      "properties": {
        "track_id": "track_0041",
        "radius_m": 53.1,
        "verfahren": "Start-/Endpunkt-Mittel",
        "punkte": 47,
        "abweichung_m": 0.41,
        "koordinaten": "52.125837, 8.503415",
        "google_maps_url": "https://www.google.com/maps?q=52.125837,8.503415",
        "navigation_url": "https://www.google.com/maps/dir/?api=1&destination=52.125837,8.503415",
        "datenquelle": "simulation",
        "name": "Revierzentrum track_0041",
        "typ": "revierzentrum_geschaetzt"
      }
    },
    {
      "type": "Feature",
      "geometry": {
        "type": "Polygon",
        "coordinates": [
          [
            [
              8.50419004,
              52.12583661
            ],
            [
              8.50418631,
              52.12588339
            ],
            [
              8.50417515,
              52.12592971
            ],
            [
              8.50415666,
              52.12597514
            ],
            [
              8.50413103,
              52.12601924
            ],
            [
              8.50409849,
              52.12606157
            ],
            [
              8.50405938,
              52.12610174
            ],
            [
              8.50401405,
              52.12613936
            ],
            [
              8.50396296,
              52.12617406
            ],
            [
              8.50390658,
              52.12620551
            ],
            [
              8.50384547,
              52.12623341
            ],
            [
              8.50378021,
              52.12625748
            ],
            [
              8.50371143,
              52.12627751
            ],
            [
              8.50363979,
              52.12629328
            ],
            [
              8.50356598,
              52.12630466
            ],
            [
              8.50349072,
              52.12631153
            ],
            [
              8.50341472,
              52.12631383
            ],
            [
              8.50333873,
              52.12631153
            ],
            [
              8.50326347,
              52.12630466
            ],
            [
              8.50318966,
              52.12629328
            ],
            [
              8.50311802,
              52.12627751
            ],
            [
              8.50304924,
              52.12625748
            ],
            [
              8.50298398,
              52.12623341
            ],
            [
              8.50292287,
              52.12620551
            ],
            [
              8.50286649,
              52.12617406
            ],
            [
              8.50281539,
              52.12613936
            ],
            [
              8.50277007,
              52.12610174
            ],
            [
              8.50273095,
              52.12606157
            ],
            [
              8.50269842,
              52.12601924
            ],
            [
              8.50267279,
              52.12597514
            ],
            [
              8.5026543,
              52.12592971
            ],
            [
              8.50264314,
              52.12588339
            ],
            [
              8.5026394,
              52.12583661
            ],
            [
              8.50264314,
              52.12578984
            ],
            [
              8.5026543,
              52.12574351
            ],
            [
              8.50267279,
              52.12569808
            ],
            [
              8.50269842,
              52.12565399
            ],
            [
              8.50273095,
              52.12561165
            ],
            [
              8.50277007,
              52.12557149
            ],
            [
              8.50281539,
              52.12553387
            ],
            [
              8.50286649,
              52.12549917
            ],
            [
              8.50292287,
              52.12546772
            ],
            [
              8.50298398,
              52.12543982
            ],
            [
              8.50304924,
              52.12541574
            ],
            [
              8.50311802,
              52.12539572
            ],
            [
              8.50318966,
              52.12537994
            ],
            [
              8.50326347,
              52.12536856
            ],
            [
              8.50333873,
              52.12536169
            ],
            [
              8.50341472,
              52.1253594
            ],
            [
              8.50349072,
              52.12536169
            ],
            [
              8.50356598,
              52.12536856
            ],
            [
              8.50363979,
              52.12537994
            ],
            [
              8.50371143,
              52.12539572
            ],
            [
              8.50378021,
              52.12541574
            ],
            [
              8.50384547,
              52.12543982
            ],
            [
              8.50390658,
              52.12546772
            ],
            [
              8.50396296,
              52.12549917
            ],
            [
              8.50401405,
              52.12553387
            ],
            [
              8.50405938,
              52.12557149
            ],
            [
              8.50409849,
              52.12561165
            ],
            [
              8.50413103,
              52.12565399
            ],
            [
              8.50415666,
              52.12569808
            ],
            [
              8.50417515,
              52.12574351
            ],
            [
              8.50418631,
              52.12578984
            ],
            [
              8.50419004,
              52.12583661
            ]
          ]
        ]
      },
      "properties": {
        "track_id": "track_0041",
        "radius_m": 53.1,
        "verfahren": "Start-/Endpunkt-Mittel",
        "punkte": 47,
        "abweichung_m": 0.41,
        "koordinaten": "52.125837, 8.503415",
        "google_maps_url": "https://www.google.com/maps?q=52.125837,8.503415",
        "navigation_url": "https://www.google.com/maps/dir/?api=1&destination=52.125837,8.503415",
        "datenquelle": "simulation",
        "name": "Revier track_0041",
        "typ": "revierflaeche"
      }
    },
    {
      "type": "Feature",
      "geometry": {
        "type": "Point",
        "coordinates": [
          8.50341589,
          52.12584021
        ]
      },
      "properties": {
        "track_id": "track_0041",
        "name": "Nest (Ground Truth) track_0041",
        "typ": "nest_ground_truth",
        "abweichung_m": 0.41,
        "datenquelle": "simulation"
      }
    },
    {
      "type": "Feature",
      "geometry": {
        "type": "Point",
        "coordinates": [
          8.500326,
          52.124165
        ]
      },
      "properties": {
        "name": "Raspberry Pi Ursprung",
        "typ": "kamerastation",
        "yaw_deg": 40.0,
        "pitch_deg": 45.0,
        "datenquelle": "simulation"
      }
    },
    {
      "type": "Feature",
      "geometry": {
        "type": "Point",
        "coordinates": [
          8.50470634,
          52.124165
        ]
      },
      "properties": {
        "name": "Raspberry Pi X-Achse",
        "typ": "kamerastation",
        "yaw_deg": 150.0,
        "pitch_deg": 45.0,
        "datenquelle": "simulation"
      }
    },
    {
      "type": "Feature",
      "geometry": {
        "type": "Point",
        "coordinates": [
          8.500326,
          52.12686115
        ]
      },
      "properties": {
        "name": "Raspberry Pi Y-Achse",
        "typ": "kamerastation",
        "yaw_deg": 300.0,
        "pitch_deg": 45.0,
        "datenquelle": "simulation"
      }
    }
  ]
}